{
  "type": "FeatureCollection",
  "features": [
    {
      "type": "Feature",
      "properties": {
        "norad_id": 24876,
        "name": "GPS BIIR-2  (PRN 13)",
        "group": "gnss",
        "lat": -22.51503488918123,
        "lon": 89.1360836345076,
        "alt_km": 20157.853976448274,
        "timestamp": "2025-12-24T03:53:29.889729+00:00",
        "meta_object_name": "GPS BIIR-2  (PRN 13)",
        "meta_object_id": "1997-035A",
        "meta_epoch": "2025-12-22T04:56:13.490880",
        "meta_mean_motion": 2.00563727,
        "meta_eccentricity": 0.00968316,
        "meta_inclination": 55.8997,
        "meta_ra_of_asc_node": 105.4987,
        "meta_arg_of_pericenter": 56.961,
        "meta_mean_anomaly": 303.9513,
        "meta_ephemeris_type": 0,
        "meta_classification_type": "U",
        "meta_norad_cat_id": 24876,
        "meta_element_set_no": 999,
        "meta_rev_at_epoch": 20840,
        "meta_bstar": 0,
        "meta_mean_motion_dot": 1.2e-07,
        "meta_mean_motion_ddot": 0,
        "tle_line1": "1 24876U 97035A   25356.20571170  .00000012  00000+0  00000+0 0  9996",
        "tle_line2": "2 24876  55.8997 105.4987 0096831  56.9610 303.9513  2.00563727208400"
      },
      "geometry": {
        "type": "Point",
        "coordinates": [
          89.1360836345076,
          -22.51503488918123
        ]
      }
    },
    {
      "type": "Feature",
      "properties": {
        "norad_id": 26360,
        "name": "GPS BIIR-4  (PRN 20)",
        "group": "gnss",
        "lat": 48.264508795137914,
        "lon": 77.99170062729681,
        "alt_km": 20279.61351162099,
        "timestamp": "2025-12-24T03:53:29.889780+00:00",
        "meta_object_name": "GPS BIIR-4  (PRN 20)",
        "meta_object_id": "2000-025A",
        "meta_epoch": "2025-12-23T19:23:28.398048",
        "meta_mean_motion": 2.00566749,
        "meta_eccentricity": 0.0038902,
        "meta_inclination": 55.0517,
        "meta_ra_of_asc_node": 26.3903,
        "meta_arg_of_pericenter": 243.0445,
        "meta_mean_anomaly": 286.8521,
        "meta_ephemeris_type": 0,
        "meta_classification_type": "U",
        "meta_norad_cat_id": 26360,
        "meta_element_set_no": 999,
        "meta_rev_at_epoch": 18775,
        "meta_bstar": 0,
        "meta_mean_motion_dot": -5.7e-07,
        "meta_mean_motion_ddot": 0,
        "tle_line1": "1 26360U 00025A   25357.80796757 -.00000057  00000+0  00000+0 0  9996",
        "tle_line2": "2 26360  55.0517  26.3903 0038902 243.0445 286.8521  2.00566749187758"
      },
      "geometry": {
        "type": "Point",
        "coordinates": [
          77.99170062729681,
          48.264508795137914
        ]
      }
    },
    {
      "type": "Feature",
      "properties": {
        "norad_id": 26407,
        "name": "GPS BIIR-5  (PRN 22)",
        "group": "gnss",
        "lat": -54.48862712025856,
        "lon": 122.45654244162161,
        "alt_km": 19922.610122626953,
        "timestamp": "2025-12-24T03:53:29.889799+00:00",
        "meta_object_name": "GPS BIIR-5  (PRN 22)",
        "meta_object_id": "2000-040A",
        "meta_epoch": "2025-12-23T19:23:16.859328",
        "meta_mean_motion": 2.00568088,
        "meta_eccentricity": 0.0125405,
        "meta_inclination": 54.8884,
        "meta_ra_of_asc_node": 222.1289,
        "meta_arg_of_pericenter": 301.9882,
        "meta_mean_anomaly": 67.4958,
        "meta_ephemeris_type": 0,
        "meta_classification_type": "U",
        "meta_norad_cat_id": 26407,
        "meta_element_set_no": 999,
        "meta_rev_at_epoch": 18643,
        "meta_bstar": 0,
        "meta_mean_motion_dot": 6.5e-07,
        "meta_mean_motion_ddot": 0,
        "tle_line1": "1 26407U 00040A   25357.80783402  .00000065  00000+0  00000+0 0  9996",
        "tle_line2": "2 26407  54.8884 222.1289 0125405 301.9882  67.4958  2.00568088186430"
      },
      "geometry": {
        "type": "Point",
        "coordinates": [
          122.45654244162161,
          -54.48862712025856
        ]
      }
    },
    {
      "type": "Feature",
      "properties": {
        "norad_id": 27663,
        "name": "GPS BIIR-8  (PRN 16)",
        "group": "gnss",
        "lat": 32.402876506345414,
        "lon": -111.57945204922505,
        "alt_km": 19791.639133055276,
        "timestamp": "2025-12-24T03:53:29.889815+00:00",
        "meta_object_name": "GPS BIIR-8  (PRN 16)",
        "meta_object_id": "2003-005A",
        "meta_epoch": "2025-12-23T07:51:19.360224",
        "meta_mean_motion": 2.00570305,
        "meta_eccentricity": 0.0147825,
        "meta_inclination": 54.921,
        "meta_ra_of_asc_node": 221.9571,
        "meta_arg_of_pericenter": 51.9554,
        "meta_mean_anomaly": 106.5355,
        "meta_ephemeris_type": 0,
        "meta_classification_type": "U",
        "meta_norad_cat_id": 27663,
        "meta_element_set_no": 999,
        "meta_rev_at_epoch": 16778,
        "meta_bstar": 0,
        "meta_mean_motion_dot": 6.6e-07,
        "meta_mean_motion_ddot": 0,
        "tle_line1": "1 27663U 03005A   25357.32730741  .00000066  00000+0  00000+0 0  9991",
        "tle_line2": "2 27663  54.9210 221.9571 0147825  51.9554 106.5355  2.00570305167786"
      },
      "geometry": {
        "type": "Point",
        "coordinates": [
          -111.57945204922505,
          32.402876506345414
        ]
      }
    },
    {
      "type": "Feature",
      "properties": {
        "norad_id": 28190,
        "name": "GPS BIIR-11 (PRN 19)",
        "group": "gnss",
        "lat": -16.500656578522335,
        "lon": 114.72366953324381,
        "alt_km": 19940.28966951535,
        "timestamp": "2025-12-24T03:53:29.889829+00:00",
        "meta_object_name": "GPS BIIR-11 (PRN 19)",
        "meta_object_id": "2004-009A",
        "meta_epoch": "2025-12-22T01:59:41.237952",
        "meta_mean_motion": 2.00560473,
        "meta_eccentricity": 0.01084919,
        "meta_inclination": 54.9772,
        "meta_ra_of_asc_node": 282.8425,
        "meta_arg_of_pericenter": 167.7907,
        "meta_mean_anomaly": 330.6754,
        "meta_ephemeris_type": 0,
        "meta_classification_type": "U",
        "meta_norad_cat_id": 28190,
        "meta_element_set_no": 999,
        "meta_rev_at_epoch": 15939,
        "meta_bstar": 0,
        "meta_mean_motion_dot": -2.4e-07,
        "meta_mean_motion_ddot": 0,
        "tle_line1": "1 28190U 04009A   25356.08311618 -.00000024  00000+0  00000+0 0  9997",
        "tle_line2": "2 28190  54.9772 282.8425 0108491 167.7907 330.6754  2.00560473159399"
      },
      "geometry": {
        "type": "Point",
        "coordinates": [
          114.72366953324381,
          -16.500656578522335
        ]
      }
    },
    {
      "type": "Feature",
      "properties": {
        "norad_id": 28474,
        "name": "GPS BIIR-13 (PRN 02)",
        "group": "gnss",
        "lat": -53.62761991422343,
        "lon": -137.57574021365028,
        "alt_km": 19897.154005521836,
        "timestamp": "2025-12-24T03:53:29.889842+00:00",
        "meta_object_name": "GPS BIIR-13 (PRN 02)",
        "meta_object_id": "2004-045A",
        "meta_epoch": "2025-12-22T13:16:56.089344",
        "meta_mean_motion": 2.00570004,
        "meta_eccentricity": 0.0170937,
        "meta_inclination": 55.2358,
        "meta_ra_of_asc_node": 332.0112,
        "meta_arg_of_pericenter": 309.6885,
        "meta_mean_anomaly": 228.7623,
        "meta_ephemeris_type": 0,
        "meta_classification_type": "U",
        "meta_norad_cat_id": 28474,
        "meta_element_set_no": 999,
        "meta_rev_at_epoch": 15488,
        "meta_bstar": 0,
        "meta_mean_motion_dot": -6.6e-07,
        "meta_mean_motion_ddot": 0,
        "tle_line1": "1 28474U 04045A   25356.55342696 -.00000066  00000+0  00000+0 0  9990",
        "tle_line2": "2 28474  55.2358 332.0112 0170937 309.6885 228.7623  2.00570004154887"
      },
      "geometry": {
        "type": "Point",
        "coordinates": [
          -137.57574021365028,
          -53.62761991422343
        ]
      }
    },
    {
      "type": "Feature",
      "properties": {
        "norad_id": 28874,
        "name": "GPS BIIRM-1 (PRN 17)",
        "group": "gnss",
        "lat": -30.207867453958965,
        "lon": 124.25224583148152,
        "alt_km": 20096.60837141364,
        "timestamp": "2025-12-24T03:53:29.889855+00:00",
        "meta_object_name": "GPS BIIRM-1 (PRN 17)",
        "meta_object_id": "2005-038A",
        "meta_epoch": "2025-12-23T15:29:31.408224",
        "meta_mean_motion": 2.005777,
        "meta_eccentricity": 0.0131308,
        "meta_inclination": 55.0222,
        "meta_ra_of_asc_node": 280.2619,
        "meta_arg_of_pericenter": 293.8052,
        "meta_mean_anomaly": 272.4454,
        "meta_ephemeris_type": 0,
        "meta_classification_type": "U",
        "meta_norad_cat_id": 28874,
        "meta_element_set_no": 999,
        "meta_rev_at_epoch": 14831,
        "meta_bstar": 0,
        "meta_mean_motion_dot": -2e-07,
        "meta_mean_motion_ddot": 0,
        "tle_line1": "1 28874U 05038A   25357.64550241 -.00000020  00000+0  00000+0 0  9995",
        "tle_line2": "2 28874  55.0222 280.2619 0131308 293.8052 272.4454  2.00577700148313"
      },
      "geometry": {
        "type": "Point",
        "coordinates": [
          124.25224583148152,
          -30.207867453958965
        ]
      }
    }
  ]
}